STARLINK-31557          
1 59357U 24060K   24112.91667824 -.00063886  00000+0 -11573-2 0  9995
2 59357  43.0000 215.9059 0001982 276.7241 184.4276 15.48941854  4586
STARLINK-31559          
1 59358U 24060L   24112.91667824 -.00070295  00000+0 -12751-2 0  9997
2 59358  42.9998 215.9012 0001570 270.5151 192.5551 15.48942192  4598
STARLINK-31501          
1 59359U 24060M   24112.91667824  .00024396  00000+0  44594-3 0  9998
2 59359  43.0000 215.8959 0001538 278.0962 186.8885 15.48901974  4589
STARLINK-31549          
1 59360U 24060N   24112.91667824 -.00029738  00000+0 -53335-3 0  9990
2 59360  42.9999 215.8862 0001886 268.1759 200.6349 15.48929804  4637
STARLINK-31560          
1 59361U 24060P   24113.16667824  .00045023  00000+0  81571-3 0  9995
2 59361  42.9994 213.9938 0002398 278.5334 320.6566 15.48901135  4630
STARLINK-31571          
1 59362U 24060Q   24112.91667824 -.00010884  00000+0 -19178-3 0  9991
2 59362  42.9998 215.8799 0001423 278.4353 192.7065 15.48801126  4630
STARLINK-31553          
1 59363U 24060R   24112.91667824 -.00010946  00000+0 -19212-3 0  9990
2 59363  42.9999 215.8758 0001945 266.0236 206.6318 15.48913115  4592
STARLINK-31547          
1 59364U 24060S   24113.16667824 -.02147993  00000+0 -50709-1 0  9998
2 59364  42.9996 214.4280 0001378 275.1123 148.6323 15.44787810  4623
STARLINK-31537          
1 59365U 24060T   24112.91667824 -.00019041  00000+0 -33897-3 0  9992
2 59365  42.9998 215.8659 0001898 268.0976 208.3884 15.48920342  4590
STARLINK-31451          
1 59366U 24060U   24112.91667824 -.00078048  00000+0 -14169-2 0  9995
2 59366  42.9998 215.8613 0002285 268.9445 209.4344 15.48958168  4592
STARLINK-31428          
1 59367U 24060V   24112.91667824 -.00014414  00000+0 -25486-3 0  9998
2 59367  42.9998 215.8569 0002087 262.3109 217.9819 15.48931560  4596
STARLINK-31419          
1 59368U 24060W   24112.91667824 -.00045780  00000+0 -82578-3 0  9994
2 59368  42.9999 215.8518 0002148 258.8579 223.3641 15.48937576  4598
STARLINK-31583          
1 59369U 24060X   24113.16667824  .00042580  00000+0  10227-2 0  9997
2 59369  42.9993 214.5311 0002035 235.2915 145.1155 15.40646231  4620
STARLINK-31461          
1 59370U 24060Y   24113.16667824 -.02148456  00000+0 -50021-1 0  9997
2 59370  42.9995 214.4593 0001669 273.8992 136.0949 15.45187424  4562
RESURS-P 4              
1 59371U 24061A   24113.10026786  .00010979  00000+0  35756-3 0  9993
2 59371  97.1816  67.8104 0001948  70.3686 289.7767 15.32003754  3332
SL-4 R/B                
1 59372U 24061B   24112.84499169  .00233835  18274-4  12820-2 0  9994
2 59372  97.2038  68.7191 0108839 337.9319  21.7276 15.71514190  3364
STARLINK-31641          
1 59374U 24062A   24113.16667824 -.00007092  00000+0 -15004-3 0  9995
2 59374  53.1596 219.3741 0001336 101.7781 210.4291 15.42856706  4360
STARLINK-31430          
1 59375U 24062B   24113.00001157 -.00097060  00000+0 -17551-2 0  9992
2 59375  53.1599 220.0879 0001218 105.1095  39.1519 15.49368416  4160
STARLINK-31695          
1 59376U 24062C   24113.00001157 -.00197868  00000+0 -36163-2 0  9990
2 59376  53.1599 220.0842 0001250  50.8261  95.2399 15.49495821  4168
STARLINK-31716          
1 59377U 24062D   24112.91667824 -.00156657  00000+0 -28551-2 0  9992
2 59377  53.1597 220.4789 0001579  70.3595 332.6847 15.49409298  4363
STARLINK-31710          
1 59378U 24062E   24112.91667824  .00014760  00000+0  27308-3 0  9999
2 59378  53.1597 220.4753 0001468  60.4886 344.5498 15.49293970  4200
STARLINK-31698          
1 59379U 24062F   24113.16667824 -.02135634  00000+0 -48645-1 0  9991
2 59379  53.1600 219.2818 0001112  78.1840 279.8381 15.46022265  4379
STARLINK-31680          
1 59380U 24062G   24113.00001157 -.00007920  00000+0 -13444-3 0  9992
2 59380  53.1599 220.0679 0001324  85.6104  68.3359 15.49317037  3994
STARLINK-31713          
1 59381U 24062H   24112.91667824 -.00085263  00000+0 -15395-2 0  9993
2 59381  53.1597 220.4630 0001688  54.5967 356.2319 15.49348392  4364
STARLINK-31705          
1 59382U 24062J   24113.00001157 -.00010999  00000+0 -18991-3 0  9996
2 59382  53.1598 220.0603 0001542  64.8356  92.9776 15.49317706  4161
STARLINK-31709          
1 59383U 24062K   24113.00001157 -.00014266  00000+0 -24885-3 0  9997
2 59383  53.1599 220.0558 0001130  74.3696  85.3808 15.49316385  4342
STARLINK-31715          
1 59384U 24062L   24113.00001157  .00001862  00000+0  41611-4 0  9991
2 59384  53.1599 220.0519 0001523  63.2974  98.4579 15.49259552  4344
STARLINK-31717          
1 59385U 24062M   24112.91667824 -.00151079  00000+0 -27531-2 0  9991
2 59385  53.1597 220.4471 0001939  72.8688 345.6744 15.49388490  4360
STARLINK-31688          
1 59386U 24062N   24113.16667824 -.00429660  00000+0 -10095-1 0  9990
2 59386  53.1600 219.2699 0000484  80.7570 282.8338 15.43123278  4373
STARLINK-31714          
1 59387U 24062P   24113.00001157 -.02223258  00000+0 -45362-1 0  9997
2 59387  53.1602 220.0353 0001826  99.2185  70.1844 15.49299980  4168
