OBJECT_NAME,OBJECT_ID,EPOCH,MEAN_MOTION,ECCENTRICITY,INCLINATION,RA_OF_ASC_NODE,ARG_OF_PERICENTER,MEAN_ANOMALY,EPHEMERIS_TYPE,CLASSIFICATION_TYPE,NORAD_CAT_ID,ELEMENT_SET_NO,REV_AT_EPOCH,BSTAR,MEAN_MOTION_DOT,MEAN_MOTION_DDOT
STARLINK-31557,2024-060K,2024-04-21T22:00:00.999936,15.48941854,0.0001982,43,215.9059,276.7241,184.4276,0,U,59357,999,458,-0.0011573,-0.00063886,0
STARLINK-31559,2024-060L,2024-04-21T22:00:00.999936,15.48942192,0.000157,42.9998,215.9012,270.5151,192.5551,0,U,59358,999,459,-0.0012751,-0.00070295,0
STARLINK-31501,2024-060M,2024-04-21T22:00:00.999936,15.48901974,0.0001538,43,215.8959,278.0962,186.8885,0,U,59359,999,458,0.00044594,0.00024396,0
STARLINK-31549,2024-060N,2024-04-21T22:00:00.999936,15.48929804,0.0001886,42.9999,215.8862,268.1759,200.6349,0,U,59360,999,463,-0.00053335,-0.00029738,0
STARLINK-31560,2024-060P,2024-04-22T04:00:00.999936,15.48901135,0.0002398,42.9994,213.9938,278.5334,320.6566,0,U,59361,999,463,0.00081571,0.00045023,0
STARLINK-31571,2024-060Q,2024-04-21T22:00:00.999936,15.48801126,0.0001423,42.9998,215.8799,278.4353,192.7065,0,U,59362,999,463,-0.00019178,-0.00010884,0
STARLINK-31553,2024-060R,2024-04-21T22:00:00.999936,15.48913115,0.0001945,42.9999,215.8758,266.0236,206.6318,0,U,59363,999,459,-0.00019212,-0.00010946,0
STARLINK-31547,2024-060S,2024-04-22T04:00:00.999936,15.4478781,0.0001378,42.9996,214.428,275.1123,148.6323,0,U,59364,999,462,-0.050709,-0.02147993,0
STARLINK-31537,2024-060T,2024-04-21T22:00:00.999936,15.48920342,0.0001898,42.9998,215.8659,268.0976,208.3884,0,U,59365,999,459,-0.00033897,-0.00019041,0
STARLINK-31451,2024-060U,2024-04-21T22:00:00.999936,15.48958168,0.0002285,42.9998,215.8613,268.9445,209.4344,0,U,59366,999,459,-0.0014169,-0.00078048,0
STARLINK-31428,2024-060V,2024-04-21T22:00:00.999936,15.4893156,0.0002087,42.9998,215.8569,262.3109,217.9819,0,U,59367,999,459,-0.00025486,-0.00014414,0
STARLINK-31419,2024-060W,2024-04-21T22:00:00.999936,15.48937576,0.0002148,42.9999,215.8518,258.8579,223.3641,0,U,59368,999,459,-0.00082578,-0.0004578,0
STARLINK-31583,2024-060X,2024-04-22T04:00:00.999936,15.40646231,0.0002035,42.9993,214.5311,235.2915,145.1155,0,U,59369,999,462,0.0010227,0.0004258,0
STARLINK-31461,2024-060Y,2024-04-22T04:00:00.999936,15.45187424,0.0001669,42.9995,214.4593,273.8992,136.0949,0,U,59370,999,456,-0.050021,-0.02148456,0
RESURS-P 4,2024-061A,2024-04-22T02:24:23.143104,15.32003754,0.0001948,97.1816,67.8104,70.3686,289.7767,0,U,59371,999,333,0.00035756,0.00010979,0
SL-4 R/B,2024-061B,2024-04-21T20:16:47.282016,15.7151419,0.0108839,97.2038,68.7191,337.9319,21.7276,0,U,59372,999,336,0.001282,0.00233835,1.8274e-05
STARLINK-31641,2024-062A,2024-04-22T04:00:00.999936,15.42856706,0.0001336,53.1596,219.3741,101.7781,210.4291,0,U,59374,999,436,-0.00015004,-7.092e-05,0
STARLINK-31430,2024-062B,2024-04-22T00:00:00.999648,15.49368416,0.0001218,53.1599,220.0879,105.1095,39.1519,0,U,59375,999,416,-0.0017551,-0.0009706,0
STARLINK-31695,2024-062C,2024-04-22T00:00:00.999648,15.49495821,0.000125,53.1599,220.0842,50.8261,95.2399,0,U,59376,999,416,-0.0036163,-0.00197868,0
STARLINK-31716,2024-062D,2024-04-21T22:00:00.999936,15.49409298,0.0001579,53.1597,220.4789,70.3595,332.6847,0,U,59377,999,436,-0.0028551,-0.00156657,0
STARLINK-31710,2024-062E,2024-04-21T22:00:00.999936,15.4929397,0.0001468,53.1597,220.4753,60.4886,344.5498,0,U,59378,999,420,0.00027308,0.0001476,0
STARLINK-31698,2024-062F,2024-04-22T04:00:00.999936,15.46022265,0.0001112,53.16,219.2818,78.184,279.8381,0,U,59379,999,437,-0.048645,-0.02135634,0
STARLINK-31680,2024-062G,2024-04-22T00:00:00.999648,15.49317037,0.0001324,53.1599,220.0679,85.6104,68.3359,0,U,59380,999,399,-0.00013444,-7.92e-05,0
STARLINK-31713,2024-062H,2024-04-21T22:00:00.999936,15.49348392,0.0001688,53.1597,220.463,54.5967,356.2319,0,U,59381,999,436,-0.0015395,-0.00085263,0
STARLINK-31705,2024-062J,2024-04-22T00:00:00.999648,15.49317706,0.0001542,53.1598,220.0603,64.8356,92.9776,0,U,59382,999,416,-0.00018991,-0.00010999,0
STARLINK-31709,2024-062K,2024-04-22T00:00:00.999648,15.49316385,0.000113,53.1599,220.0558,74.3696,85.3808,0,U,59383,999,434,-0.00024885,-0.00014266,0
STARLINK-31715,2024-062L,2024-04-22T00:00:00.999648,15.49259552,0.0001523,53.1599,220.0519,63.2974,98.4579,0,U,59384,999,434,4.1611e-05,1.862e-05,0
STARLINK-31717,2024-062M,2024-04-21T22:00:00.999936,15.4938849,0.0001939,53.1597,220.4471,72.8688,345.6744,0,U,59385,999,436,-0.0027531,-0.00151079,0
STARLINK-31688,2024-062N,2024-04-22T04:00:00.999936,15.43123278,4.84e-05,53.16,219.2699,80.757,282.8338,0,U,59386,999,437,-0.010095,-0.0042966,0
STARLINK-31714,2024-062P,2024-04-22T00:00:00.999648,15.4929998,0.0001826,53.1602,220.0353,99.2185,70.1844,0,U,59387,999,416,-0.045362,-0.02223258,0
